{
    "links": {
        "self": "http://www.neowsapp.com/rest/v1/neo/3840694?api_key=iIulBulltgU6a56xZRHN4H3l9WmuAYTsLGpBGhQ2"
    },
    "id": "3840694",
    "neo_reference_id": "3840694",
    "name": "(2019 FT)",
    "designation": "2019 FT",
    "nasa_jpl_url": "http://ssd.jpl.nasa.gov/sbdb.cgi?sstr=3840694",
    "absolute_magnitude_h": 22.9,
    "estimated_diameter": {
        "kilometers": {
            "estimated_diameter_min": 0.0699125232,
            "estimated_diameter_max": 0.1563291544
        },
        "meters": {
            "estimated_diameter_min": 69.9125232246,
            "estimated_diameter_max": 156.3291544087
        },
        "miles": {
            "estimated_diameter_min": 0.0434416145,
            "estimated_diameter_max": 0.097138403
        },
        "feet": {
            "estimated_diameter_min": 229.3718026961,
            "estimated_diameter_max": 512.8909429502
        }
    },
    "is_potentially_hazardous_asteroid": false,
    "close_approach_data": [
        {
            "close_approach_date": "2019-03-30",
            "close_approach_date_full": "2019-Mar-30 12:57",
            "epoch_date_close_approach": 1553950620000,
            "relative_velocity": {
                "kilometers_per_second": "26.2594329111",
                "kilometers_per_hour": "94533.9584799607",
                "miles_per_hour": "58739.72547884"
            },
            "miss_distance": {
                "astronomical": "0.0592036806",
                "lunar": "23.0302317534",
                "kilometers": "8856744.513920322",
                "miles": "5503325.8483395636"
            },
            "orbiting_body": "Earth"
        },
        {
            "close_approach_date": "2020-10-14",
            "close_approach_date_full": "2020-Oct-14 06:44",
            "epoch_date_close_approach": 1602657840000,
            "relative_velocity": {
                "kilometers_per_second": "29.4223283934",
                "kilometers_per_hour": "105920.3822162227",
                "miles_per_hour": "65814.8063831857"
            },
            "miss_distance": {
                "astronomical": "0.4565856762",
                "lunar": "177.6118280418",
                "kilometers": "68304244.632029694",
                "miles": "42442289.5392260172"
            },
            "orbiting_body": "Earth"
        }
    ],
    "orbital_data": {
        "orbit_id": "3",
        "orbit_determination_date": "2019-03-31 07:52:01",
        "first_observation_date": "2019-03-26",
        "last_observation_date": "2019-03-31",
        "data_arc_in_days": 5,
        "observations_used": 131,
        "orbit_uncertainty": "8",
        "minimum_orbit_intersection": ".030736",
        "jupiter_tisserand_invariant": "4.882",
        "epoch_osculation": "2458569.5",
        "eccentricity": ".6784513984691883",
        "semi_major_axis": "1.211380576230847",
        "inclination": "34.22694597665049",
        "ascending_node_longitude": "5.333857040813658",
        "orbital_period": "486.9892061968176",
        "perihelion_distance": ".3895177302086177",
        "perihelion_argument": "304.2399417145851",
        "aphelion_distance": "2.033243422253077",
        "perihelion_time": "2458626.371558263130",
        "mean_anomaly": "317.9584912474378",
        "mean_motion": ".7392360968561288",
        "equinox": "J2000",
        "orbit_class": {
            "orbit_class_type": "APO",
            "orbit_class_description": "Near-Earth asteroid orbits which cross the Earth’s orbit similar to that of 1862 Apollo",
            "orbit_class_range": "a (semi-major axis) > 1.0 AU; q (perihelion) < 1.017 AU"
        }
    },
    "is_sentry_object": false
}